NORAD_CAT_ID,OBJECT_NAME,OBJECT_TYPE,EPOCH,MEAN_MOTION,ECCENTRICITY,INCLINATION,RA_OF_ASC_NODE,ARG_OF_PERICENTER,MEAN_ANOMALY,BSTAR,MEAN_MOTION_DOT,MEAN_MOTION_DDOT,TLE_LINE0,TLE_LINE1,TLE_LINE2,SEMIMAJOR_AXIS,PERIOD,APOGEE,PERIGEE,DECAYED
49165.0,STARLINK-3052,PAYLOAD,2021-12-11 22:00:00,15.23453832,0.0003405,70.0001,240.3757,282.4085,40.6661,-0.029695,-0.00658482,0.0,0 STARLINK-3052,1 49165U 21082AM  21345.91667824 -.00658482  00000-0 -29695-1 0  9993,2 49165  70.0001 240.3757 0003405 282.4085  40.6661 15.23453832  3646,6873.569,94.522,497.775,493.094,0.0
49165.0,STARLINK-3052,PAYLOAD,2021-12-12 14:00:01,15.22516138,0.0003371,69.9999,238.6294,273.2149,103.9578,-0.030308,-0.00653948,0.0,0 STARLINK-3052,1 49165U 21082AM  21346.58334491 -.00653948  00000-0 -30308-1 0  9993,2 49165  69.9999 238.6294 0003371 273.2149 103.9578 15.22516138 15276,6876.391,94.58,500.574,495.93800000000016,0.0
49165.0,STARLINK-3052,PAYLOAD,2021-12-12 22:00:01,15.22051969,0.0003461,70.0002,237.7572,282.3469,121.0957,-0.031024,-0.00659834,0.0,0 STARLINK-3052,1 49165U 21082AM  21346.91668981 -.00659834  00000-0 -31024-1 0  9990,2 49165  70.0002 237.7572 0003461 282.3469 121.0957 15.22051969  3623,6877.7890000000025,94.609,502.034,497.274,0.0
49165.0,STARLINK-3052,PAYLOAD,2021-12-13 14:00:01,15.2111544,0.000333,69.9999,236.0146,275.5566,178.5563,-0.031742,-0.0065693,0.0,0 STARLINK-3052,1 49165U 21082AM  21347.58334491 -.00656930  00000-0 -31742-1 0  9991,2 49165  69.9999 236.0146 0003330 275.5566 178.5563 15.21115440 15426,6880.611999999999,94.667,504.768,500.186,0.0
49165.0,STARLINK-3052,PAYLOAD,2021-12-13 22:00:00,15.20649,0.0003389,70.0001,235.1443,283.6932,194.9453,-0.032307,-0.00659358,0.0,0 STARLINK-3052,1 49165U 21082AM  21347.91667824 -.00659358  00000-0 -32307-1 0  9992,2 49165  70.0001 235.1443 0003389 283.6932 194.9453 15.20649000  3648,6882.019,94.696,506.216,501.551,0.0
49165.0,STARLINK-3052,PAYLOAD,2021-12-14 14:00:01,15.19714693,0.0003234,69.9998,233.4054,278.0358,247.9716,-0.033231,-0.00659883,0.0,0 STARLINK-3052,1 49165U 21082AM  21348.58334491 -.00659883  00000-0 -33231-1 0  9997,2 49165  69.9998 233.4054 0003234 278.0358 247.9716 15.19714693 15584,6884.839,94.755,508.931,504.478,0.0
49165.0,STARLINK-3052,PAYLOAD,2021-12-14 22:00:00,15.19245343,0.0003244,70.0001,232.5368,282.539,266.3131,-0.033546,-0.00657296,0.0,0 STARLINK-3052,1 49165U 21082AM  21348.91667824 -.00657296  00000-0 -33546-1 0  9998,2 49165  70.0001 232.5368 0003244 282.5390 266.3131 15.19245343  3648,6886.257,94.784,510.356,505.888,0.0
49165.0,STARLINK-3052,PAYLOAD,2021-12-15 14:22:36,15.18288392,0.0003247,69.9999,230.7609,271.3086,47.2448,-0.034468,-0.00656911,0.0,0 STARLINK-3052,1 49165U 21082AM  21349.59902778 -.00656911  00000-0 -34468-1 0  9990,2 49165  69.9999 230.7609 0003247 271.3086  47.2448 15.18288392  3647,6889.15,94.844,513.252,508.778,0.0
49165.0,STARLINK-3052,PAYLOAD,2021-12-15 22:00:01,15.17842312,0.0003204,70.0001,229.935,279.1177,334.9653,-0.034857,-0.00655894,0.0,0 STARLINK-3052,1 49165U 21082AM  21349.91668981 -.00655894  00000-0 -34857-1 0  9992,2 49165  70.0001 229.9350 0003204 279.1177 334.9653 15.17842312  3637,6890.5,94.872,514.573,510.157,0.0
49165.0,STARLINK-3052,PAYLOAD,2021-12-16 14:00:01,15.16908254,0.0003224,69.9999,228.2037,271.702,22.9592,-0.035897,-0.00664544,0.0,0 STARLINK-3052,1 49165U 21082AM  21350.58334491 -.00664544  00000-0 -35897-1 0  9990,2 49165  69.9999 228.2037 0003224 271.7020  22.9592 15.16908254  3634,6893.328,94.93,517.4159999999998,512.971,0.0
49165.0,STARLINK-3052,PAYLOAD,2021-12-16 22:12:45,15.17643964,0.0003232,69.997,227.3253,258.6858,101.3948,-0.0094819,-0.00186621,0.0,0 STARLINK-3052,1 49165U 21082AM  21350.92552757 -.00186621  00000-0 -94819-2 0  9990,2 49165  69.9970 227.3253 0003232 258.6858 101.3948 15.17643964 15922,6891.1,94.884,515.193,510.73800000000006,0.0
49165.0,STARLINK-3052,PAYLOAD,2021-12-17 06:00:00,15.15975969,0.0003278,69.9998,226.4747,268.941,64.1185,-0.037124,-0.006689,0.0,0 STARLINK-3052,1 49165U 21082AM  21351.25001157 -.00668900  00000-0 -37124-1 0  9990,2 49165  69.9998 226.4747 0003278 268.9410  64.1185 15.15975969 15984,6896.154,94.988,520.28,515.759,0.0
49165.0,STARLINK-3052,PAYLOAD,2021-12-17 21:58:11,15.16300234,0.0003886,69.9962,224.76,261.2382,98.8346,-0.010052,-0.00190304,0.0,0 STARLINK-3052,1 49165U 21082AM  21351.91541154 -.00190304  00000-0 -10052-1 0  9998,2 49165  69.9962 224.7600 0003886 261.2382  98.8346 15.16300234 16075,6895.170999999999,94.968,519.715,514.357,0.0
49165.0,STARLINK-3052,PAYLOAD,2021-12-18 14:00:01,15.14102379,0.0003299,69.9999,223.0245,271.9594,131.1723,-0.038762,-0.0066266999999999,0.0,0 STARLINK-3052,1 49165U 21082AM  21352.58334491 -.00662670  00000-0 -38762-1 0  9994,2 49165  69.9999 223.0245 0003299 271.9594 131.1723 15.14102379 16183,6901.842,95.106,525.984,521.43,0.0
49165.0,STARLINK-3052,PAYLOAD,2021-12-18 22:00:00,15.13636933,0.0003339,70.0002,222.1635,279.3691,139.878,-0.039488,-0.00666063,0.0,0 STARLINK-3052,1 49165U 21082AM  21352.91667824 -.00666063  00000-0 -39488-1 0  9996,2 49165  70.0002 222.1635 0003339 279.3691 139.8780 15.13636933  3630,6903.257,95.135,527.427,522.817,0.0
49165.0,STARLINK-3052,PAYLOAD,2021-12-19 13:36:51,15.14007362,0.0003471,69.9968,220.4943,266.022,94.055,-0.010854,-0.00192504,0.0,0 STARLINK-3052,1 49165U 21082AM  21353.56726596 -.00192504  00000-0 -10854-1 0  9990,2 49165  69.9968 220.4943 0003471 266.0220  94.0550 15.14007362 16325,6902.130999999999,95.112,526.3919999999998,521.6,0.0
49165.0,STARLINK-3052,PAYLOAD,2021-12-19 21:33:05,15.13497053,0.00036,69.997,219.6418,261.8334,98.2425,-0.011354,-0.00198348,0.0,0 STARLINK-3052,1 49165U 21082AM  21353.89798037 -.00198348  00000-0 -11354-1 0  9993,2 49165  69.9970 219.6418 0003600 261.8334  98.2425 15.13497053 16379,6903.682,95.144,528.0319999999998,523.062,0.0
49165.0,STARLINK-3052,PAYLOAD,2021-12-19 22:00:00,15.12234095,0.0003293,70.0001,219.5841,280.8344,183.3975,-0.041046,-0.00665654,0.0,0 STARLINK-3052,1 49165U 21082AM  21353.91667824 -.00665654  00000-0 -41046-1 0  9995,2 49165  70.0001 219.5841 0003293 280.8344 183.3975 15.12234095 16387,6907.525,95.223,531.665,527.116,0.0
49165.0,STARLINK-3052,PAYLOAD,2021-12-20 14:00:01,15.11298945,0.0003196,70.0001,217.8676,276.8373,214.581,-0.042071,-0.00664771,0.0,0 STARLINK-3052,1 49165U 21082AM  21354.58334491 -.00664771  00000-0 -42071-1 0  9998,2 49165  70.0001 217.8676 0003196 276.8373 214.5810 15.11298945  3624,6910.375,95.282,534.448,530.031,0.0
49165.0,STARLINK-3052,PAYLOAD,2021-12-20 22:00:01,15.10830838,0.0003207,70.0,217.0103,279.2953,224.9388,-0.042601,-0.00664475,0.0,0 STARLINK-3052,1 49165U 21082AM  21354.91668981 -.00664475  00000-0 -42601-1 0  9999,2 49165  70.0000 217.0103 0003207 279.2953 224.9388 15.10830838 16546,6911.802,95.312,535.883,531.45,0.0
49165.0,STARLINK-3052,PAYLOAD,2021-12-21 14:00:01,15.09802284,0.0003196,69.9994,215.2987,276.0854,251.9555,-0.034696,-0.00528266,0.0,0 STARLINK-3052,1 49165U 21082AM  21355.58334491 -.00528266  00000-0 -34696-1 0  9991,2 49165  69.9994 215.2987 0003196 276.0854 251.9555 15.09802284  3608,6914.941,95.377,539.016,534.596,0.0
49165.0,STARLINK-3052,PAYLOAD,2021-12-21 22:00:00,15.09427591,0.0003136,70.0,214.4421,278.0285,261.0361,-0.044187,-0.00663091,0.0,0 STARLINK-3052,1 49165U 21082AM  21355.91667824 -.00663091  00000-0 -44187-1 0  9999,2 49165  70.0000 214.4421 0003136 278.0285 261.0361 15.09427591  3620,6916.085,95.4,540.119,535.781,0.0
49165.0,STARLINK-3052,PAYLOAD,2021-12-22 06:00:00,15.08961559,0.0003112,69.9997,213.5871,266.0182,283.5556,-0.04488,-0.00664802,0.0,0 STARLINK-3052,1 49165U 21082AM  21356.25001157 -.00664802  00000-0 -44880-1 0  9999,2 49165  69.9997 213.5871 0003112 266.0182 283.5556 15.08961559 16746,6917.509,95.43,541.5269999999998,537.221,0.0
49165.0,STARLINK-3052,PAYLOAD,2021-12-22 14:00:01,15.08494531,0.0003106,70.0001,212.733,275.2134,284.309,-0.045488,-0.00665206,0.0,0 STARLINK-3052,1 49165U 21082AM  21356.58334491 -.00665206  00000-0 -45488-1 0  9999,2 49165  70.0001 212.7330 0003106 275.2134 284.3090 15.08494531  3624,6918.937,95.459,542.951,538.653,0.0
49165.0,STARLINK-3052,PAYLOAD,2021-12-22 22:00:00,15.08024669,0.0003105,69.9999,211.8794,276.8212,292.091,-0.04585,-0.00662142,0.0,0 STARLINK-3052,1 49165U 21082AM  21356.91667824 -.00662142  00000-0 -45850-1 0  9994,2 49165  69.9999 211.8794 0003105 276.8212 292.0910 15.08024669  3644,6920.374,95.489,544.387,540.09,0.0
49165.0,STARLINK-3052,PAYLOAD,2021-12-23 14:00:01,15.07091865,0.0003092,70.0001,210.1741,273.6797,312.3264,-0.04722,-0.00664642,0.0,0 STARLINK-3052,1 49165U 21082AM  21357.58334491 -.00664642  00000-0 -47220-1 0  9999,2 49165  70.0001 210.1741 0003092 273.6797 312.3264 15.07091865 16949,6923.229,95.548,547.235,542.953,0.0
49165.0,STARLINK-3052,PAYLOAD,2021-12-23 22:00:00,15.06621981,0.0003092,69.9999,209.3223,276.166,317.5479,-0.047591,-0.00661576,0.0,0 STARLINK-3052,1 49165U 21082AM  21357.91667824 -.00661576  00000-0 -47591-1 0  9999,2 49165  69.9999 209.3223 0003092 276.1660 317.5479 15.06621981  3638,6924.668000000002,95.578,548.674,544.3919999999998,0.0
49165.0,STARLINK-3052,PAYLOAD,2021-12-24 14:00:01,15.05593696,0.0003122,69.9995,207.6215,269.5332,337.9622,-0.039123,-0.00530922,0.0,0 STARLINK-3052,1 49165U 21082AM  21358.58334491 -.00530922  00000-0 -39123-1 0  9996,2 49165  69.9995 207.6215 0003122 269.5332 337.9622 15.05593696  3593,6927.821,95.643,551.849,547.523,0.0
49165.0,STARLINK-3052,PAYLOAD,2021-12-24 22:00:00,15.05219631,0.0003109,70.0,206.7707,275.5474,337.9224,-0.049429,-0.0066158,0.0,0 STARLINK-3052,1 49165U 21082AM  21358.91667824 -.00661580  00000-0 -49429-1 0  9997,2 49165  70.0000 206.7707 0003109 275.5474 337.9224 15.05219631 17146,6928.969,95.667,552.988,548.679,0.0
